{
  "type": "FeatureCollection",
  "features": [
    {
      "type": "Feature",
      "properties": {
        "norad_id": 39617,
        "name": "ASTRA 5B (EGNOS/PRN 123)",
        "group": "gnss",
        "lat": 0.06471419945635777,
        "lon": 79.14256696919458,
        "alt_km": 35806.27932880277,
        "timestamp": "2025-12-06T22:38:42.971231+00:00",
        "meta_object_name": "ASTRA 5B (EGNOS/PRN 123)",
        "meta_object_id": "2014-011B",
        "meta_epoch": "2025-12-06T12:03:58.768992",
        "meta_mean_motion": 1.00268771,
        "meta_eccentricity": 0.00045813,
        "meta_inclination": 0.0511,
        "meta_ra_of_asc_node": 21.9947,
        "meta_arg_of_pericenter": 237.7107,
        "meta_mean_anomaly": 20.3326,
        "meta_ephemeris_type": 0,
        "meta_classification_type": "U",
        "meta_norad_cat_id": 39617,
        "meta_element_set_no": 999,
        "meta_rev_at_epoch": 4273,
        "meta_bstar": 0,
        "meta_mean_motion_dot": 1.44e-06,
        "meta_mean_motion_ddot": 0,
        "tle_line1": "1 39617U 14011B   25340.50276353  .00000144  00000+0  00000+0 0  9995",
        "tle_line2": "2 39617   0.0511  21.9947 0004581 237.7107  20.3326  1.00268771 42736"
      },
      "geometry": {
        "type": "Point",
        "coordinates": [
          79.14256696919458,
          0.06471419945635777
        ]
      }
    },
    {
      "type": "Feature",
      "properties": {
        "norad_id": 39620,
        "name": "COSMOS 2492 (754)",
        "group": "gnss",
        "lat": 1.2731492443364127,
        "lon": -38.96209456144101,
        "alt_km": 19107.17159332551,
        "timestamp": "2025-12-06T22:38:42.971242+00:00",
        "meta_object_name": "COSMOS 2492 (754)",
        "meta_object_id": "2014-012A",
        "meta_epoch": "2025-12-02T17:14:30.403680",
        "meta_mean_motion": 2.13103072,
        "meta_eccentricity": 0.00141646,
        "meta_inclination": 65.4134,
        "meta_ra_of_asc_node": 320.6107,
        "meta_arg_of_pericenter": 311.0276,
        "meta_mean_anomaly": 48.8557,
        "meta_ephemeris_type": 0,
        "meta_classification_type": "U",
        "meta_norad_cat_id": 39620,
        "meta_element_set_no": 999,
        "meta_rev_at_epoch": 9105,
        "meta_bstar": 0,
        "meta_mean_motion_dot": -3.6e-07,
        "meta_mean_motion_ddot": 0,
        "tle_line1": "1 39620U 14012A   25336.71840745 -.00000036  00000+0  00000+0 0  9991",
        "tle_line2": "2 39620  65.4134 320.6107 0014164 311.0276  48.8557  2.13103072 91051"
      },
      "geometry": {
        "type": "Point",
        "coordinates": [
          -38.96209456144101,
          1.2731492443364127
        ]
      }
    },
    {
      "type": "Feature",
      "properties": {
        "norad_id": 39635,
        "name": "IRNSS-1B",
        "group": "gnss",
        "lat": -20.704262113187834,
        "lon": 107.035559585254,
        "alt_km": 35733.25994870124,
        "timestamp": "2025-12-06T22:38:42.971253+00:00",
        "meta_object_name": "IRNSS-1B",
        "meta_object_id": "2014-017A",
        "meta_epoch": "2025-12-04T19:28:38.496288",
        "meta_mean_motion": 1.00275997,
        "meta_eccentricity": 0.0017633,
        "meta_inclination": 28.8387,
        "meta_ra_of_asc_node": 243.7276,
        "meta_arg_of_pericenter": 183.5453,
        "meta_mean_anomaly": 353.8193,
        "meta_ephemeris_type": 0,
        "meta_classification_type": "U",
        "meta_norad_cat_id": 39635,
        "meta_element_set_no": 999,
        "meta_rev_at_epoch": 4284,
        "meta_bstar": 0,
        "meta_mean_motion_dot": 1.26e-06,
        "meta_mean_motion_ddot": 0,
        "tle_line1": "1 39635U 14017A   25338.81155667  .00000126  00000+0  00000+0 0  9996",
        "tle_line2": "2 39635  28.8387 243.7276 0017633 183.5453 353.8193  1.00275997 42844"
      },
      "geometry": {
        "type": "Point",
        "coordinates": [
          107.035559585254,
          -20.704262113187834
        ]
      }
    },
    {
      "type": "Feature",
      "properties": {
        "norad_id": 39727,
        "name": "LUCH 5V (SDCM/PRN 141)",
        "group": "gnss",
        "lat": 4.572216471314151,
        "lon": 150.34841069567133,
        "alt_km": 35796.33595828981,
        "timestamp": "2025-12-06T22:38:42.971265+00:00",
        "meta_object_name": "LUCH 5V (SDCM/PRN 141)",
        "meta_object_id": "2014-023A",
        "meta_epoch": "2025-12-06T07:16:03.844992",
        "meta_mean_motion": 1.00270891,
        "meta_eccentricity": 0.00045983,
        "meta_inclination": 4.6526,
        "meta_ra_of_asc_node": 71.5937,
        "meta_arg_of_pericenter": 201.692,
        "meta_mean_anomaly": 5.8537,
        "meta_ephemeris_type": 0,
        "meta_classification_type": "U",
        "meta_norad_cat_id": 39727,
        "meta_element_set_no": 999,
        "meta_rev_at_epoch": 4242,
        "meta_bstar": 0,
        "meta_mean_motion_dot": -2.64e-06,
        "meta_mean_motion_ddot": 0,
        "tle_line1": "1 39727U 14023A   25340.30282228 -.00000264  00000+0  00000+0 0  9990",
        "tle_line2": "2 39727   4.6526  71.5937 0004598 201.6920   5.8537  1.00270891 42429"
      },
      "geometry": {
        "type": "Point",
        "coordinates": [
          150.34841069567133,
          4.572216471314151
        ]
      }
    },
    {
      "type": "Feature",
      "properties": {
        "norad_id": 39741,
        "name": "GPS BIIF-6  (PRN 06)",
        "group": "gnss",
        "lat": -38.23515587631532,
        "lon": -52.347358774691536,
        "alt_km": 20083.98253215209,
        "timestamp": "2025-12-06T22:38:42.971276+00:00",
        "meta_object_name": "GPS BIIF-6  (PRN 06)",
        "meta_object_id": "2014-026A",
        "meta_epoch": "2025-12-06T12:15:32.711328",
        "meta_mean_motion": 2.00561644,
        "meta_eccentricity": 0.00390117,
        "meta_inclination": 56.5859,
        "meta_ra_of_asc_node": 339.0187,
        "meta_arg_of_pericenter": 318.329,
        "meta_mean_anomaly": 41.3876,
        "meta_ephemeris_type": 0,
        "meta_classification_type": "U",
        "meta_norad_cat_id": 39741,
        "meta_element_set_no": 999,
        "meta_rev_at_epoch": 8467,
        "meta_bstar": 0,
        "meta_mean_motion_dot": -7.9e-07,
        "meta_mean_motion_ddot": 0,
        "tle_line1": "1 39741U 14026A   25340.51079527 -.00000079  00000+0  00000+0 0  9992",
        "tle_line2": "2 39741  56.5859 339.0187 0039011 318.3290  41.3876  2.00561644 84677"
      },
      "geometry": {
        "type": "Point",
        "coordinates": [
          -52.347358774691536,
          -38.23515587631532
        ]
      }
    },
    {
      "type": "Feature",
      "properties": {
        "norad_id": 40001,
        "name": "COSMOS 2500 (755)",
        "group": "gnss",
        "lat": -43.49667461175515,
        "lon": 166.04854446862018,
        "alt_km": 19114.271656559267,
        "timestamp": "2025-12-06T22:38:42.971287+00:00",
        "meta_object_name": "COSMOS 2500 (755)",
        "meta_object_id": "2014-032A",
        "meta_epoch": "2025-12-06T04:12:43.488576",
        "meta_mean_motion": 2.13105869,
        "meta_eccentricity": 0.00082176,
        "meta_inclination": 65.3471,
        "meta_ra_of_asc_node": 320.256,
        "meta_arg_of_pericenter": 219.1837,
        "meta_mean_anomaly": 140.7512,
        "meta_ephemeris_type": 0,
        "meta_classification_type": "U",
        "meta_norad_cat_id": 40001,
        "meta_element_set_no": 999,
        "meta_rev_at_epoch": 8934,
        "meta_bstar": 0,
        "meta_mean_motion_dot": -4.9e-07,
        "meta_mean_motion_ddot": 0,
        "tle_line1": "1 40001U 14032A   25340.17550334 -.00000049  00000+0  00000+0 0  9999",
        "tle_line2": "2 40001  65.3471 320.2560 0008217 219.1837 140.7512  2.13105869 89349"
      },
      "geometry": {
        "type": "Point",
        "coordinates": [
          166.04854446862018,
          -43.49667461175515
        ]
      }
    },
    {
      "type": "Feature",
      "properties": {
        "norad_id": 40105,
        "name": "GPS BIIF-7  (PRN 09)",
        "group": "gnss",
        "lat": -50.381689857180604,
        "lon": -26.910611280230448,
        "alt_km": 20242.871786332493,
        "timestamp": "2025-12-06T22:38:42.971298+00:00",
        "meta_object_name": "GPS BIIF-7  (PRN 09)",
        "meta_object_id": "2014-045A",
        "meta_epoch": "2025-12-05T14:26:16.975968",
        "meta_mean_motion": 2.00571979,
        "meta_eccentricity": 0.00328896,
        "meta_inclination": 55.2248,
        "meta_ra_of_asc_node": 96.1837,
        "meta_arg_of_pericenter": 119.6741,
        "meta_mean_anomaly": 240.6258,
        "meta_ephemeris_type": 0,
        "meta_classification_type": "U",
        "meta_norad_cat_id": 40105,
        "meta_element_set_no": 999,
        "meta_rev_at_epoch": 8219,
        "meta_bstar": 0,
        "meta_mean_motion_dot": -1.2e-07,
        "meta_mean_motion_ddot": 0,
        "tle_line1": "1 40105U 14045A   25339.60158537 -.00000012  00000+0  00000+0 0  9993",
        "tle_line2": "2 40105  55.2248  96.1837 0032889 119.6741 240.6258  2.00571979 82198"
      },
      "geometry": {
        "type": "Point",
        "coordinates": [
          -26.910611280230448,
          -50.381689857180604
        ]
      }
    }
  ]
}